start=new Date('2023-05-16T00:00:00.000Z').valueOf();
sats=[{"REV_AT_EPOCH":"1583","MEAN_MOTION_DOT":"0.00001739","RCS_SIZE":"LARGE","SEMIMAJOR_AXIS":"6937.235","OBJECT_ID":"2023-015BD","OBJECT_NAME":"STARLINK-5141","MEAN_ANOMALY":"75.6876","EPOCH":"2023-05-15T18:45:56.237760","GP_ID":"231929792","SITE":"AFETR","TLE_LINE2":"2 55500  43.0018 169.4170 0001516 284.3798  75.6876 15.02529861 15830","TIME_SYSTEM":"UTC","EPHEMERIS_TYPE":"0","MEAN_ELEMENT_THEORY":"SGP4","APOAPSIS":"560.152","ELEMENT_SET_NO":"999","LAUNCH_DATE":"2023-02-02","DECAY_DATE":null,"REF_FRAME":"TEME","TLE_LINE1":"1 55500U 23015BD  23135.78190090  .00001739  00000-0  14382-3 0  9995","MEAN_MOTION_DDOT":"0.0000000000000","CENTER_NAME":"EARTH","NORAD_CAT_ID":"55500","BSTAR":"0.00014382000000","COUNTRY_CODE":"US","FILE":"3908892","PERIOD":"95.838","CLASSIFICATION_TYPE":"U","PERIAPSIS":"558.049","MEAN_MOTION":"15.02529861","OBJECT_TYPE":"PAYLOAD","ARG_OF_PERICENTER":"284.3798","INCLINATION":"43.0018","RA_OF_ASC_NODE":"169.4170","ECCENTRICITY":"0.00015160"},{"ELEMENT_SET_NO":"999","APOAPSIS":"559.992","MEAN_ELEMENT_THEORY":"SGP4","LAUNCH_DATE":"2023-02-02","DECAY_DATE":null,"REF_FRAME":"TEME","MEAN_MOTION_DDOT":"0.0000000000000","TLE_LINE1":"1 55501U 23015BE  23135.77301512  .00002826  00000-0  22420-3 0  9998","NORAD_CAT_ID":"55501","CENTER_NAME":"EARTH","FILE":"3908892","COUNTRY_CODE":"US","BSTAR":"0.00022420000000","MEAN_MOTION":"15.02537795","PERIAPSIS":"558.160","CLASSIFICATION_TYPE":"U","PERIOD":"95.838","INCLINATION":"43.0022","RA_OF_ASC_NODE":"169.3465","ECCENTRICITY":"0.00013200","ARG_OF_PERICENTER":"278.9157","OBJECT_TYPE":"PAYLOAD","REV_AT_EPOCH":"1583","OBJECT_ID":"2023-015BE","SEMIMAJOR_AXIS":"6937.211","MEAN_MOTION_DOT":"0.00002826","RCS_SIZE":"LARGE","MEAN_ANOMALY":"81.1535","OBJECT_NAME":"STARLINK-5367","EPOCH":"2023-05-15T18:33:08.506368","TIME_SYSTEM":"UTC","TLE_LINE2":"2 55501  43.0022 169.3465 0001320 278.9157  81.1535 15.02537795 15832","GP_ID":"231928547","SITE":"AFETR","EPHEMERIS_TYPE":"0"},{"REF_FRAME":"TEME","MEAN_MOTION_DDOT":"0.0000000000000","TLE_LINE1":"1 55569U 23020A   23135.86897137  .00000436  00000-0  47347-4 0  9992","ELEMENT_SET_NO":"999","MEAN_ELEMENT_THEORY":"SGP4","APOAPSIS":"559.784","DECAY_DATE":null,"LAUNCH_DATE":"2023-02-12","PERIAPSIS":"558.381","MEAN_MOTION":"15.02535642","PERIOD":"95.838","CLASSIFICATION_TYPE":"U","ARG_OF_PERICENTER":"236.4206","ECCENTRICITY":"0.00010110","RA_OF_ASC_NODE":"195.3334","INCLINATION":"43.0025","OBJECT_TYPE":"PAYLOAD","CENTER_NAME":"EARTH","NORAD_CAT_ID":"55569","FILE":"3908892","BSTAR":"0.00004734700000","COUNTRY_CODE":"US","MEAN_ANOMALY":"123.6540","OBJECT_NAME":"STARLINK-5749","EPOCH":"2023-05-15T20:51:19.126368","REV_AT_EPOCH":"1522","OBJECT_ID":"2023-020A","MEAN_MOTION_DOT":"0.00000436","RCS_SIZE":"LARGE","SEMIMAJOR_AXIS":"6937.218","EPHEMERIS_TYPE":"0","TLE_LINE2":"2 55569  43.0025 195.3334 0001011 236.4206 123.6540 15.02535642 15224","TIME_SYSTEM":"UTC","SITE":"AFETR","GP_ID":"231929799"},{"MEAN_MOTION":"15.02536692","PERIAPSIS":"558.087","CLASSIFICATION_TYPE":"U","PERIOD":"95.838","RA_OF_ASC_NODE":"195.3396","INCLINATION":"43.0015","ECCENTRICITY":"0.00014310","ARG_OF_PERICENTER":"274.9826","OBJECT_TYPE":"PAYLOAD","NORAD_CAT_ID":"55570","CENTER_NAME":"EARTH","FILE":"3908892","COUNTRY_CODE":"US","BSTAR":"0.00012073000000","REF_FRAME":"TEME","MEAN_MOTION_DDOT":"0.0000000000000","TLE_LINE1":"1 55570U 23020B   23135.87008018  .00001428  00000-0  12073-3 0  9996","ELEMENT_SET_NO":"999","APOAPSIS":"560.072","MEAN_ELEMENT_THEORY":"SGP4","LAUNCH_DATE":"2023-02-12","DECAY_DATE":null,"EPHEMERIS_TYPE":"0","TIME_SYSTEM":"UTC","TLE_LINE2":"2 55570  43.0015 195.3396 0001431 274.9826  85.0853 15.02536692 14159","GP_ID":"231928554","SITE":"AFETR","MEAN_ANOMALY":"85.0853","OBJECT_NAME":"STARLINK-5737","EPOCH":"2023-05-15T20:52:54.927552","REV_AT_EPOCH":"1415","OBJECT_ID":"2023-020B","SEMIMAJOR_AXIS":"6937.214","MEAN_MOTION_DOT":"0.00001428","RCS_SIZE":"LARGE"},{"REF_FRAME":"TEME","TLE_LINE1":"1 55571U 23020C   23135.86453244  .00000973  00000-0  87082-4 0  9998","MEAN_MOTION_DDOT":"0.0000000000000","ELEMENT_SET_NO":"999","APOAPSIS":"560.079","MEAN_ELEMENT_THEORY":"SGP4","DECAY_DATE":null,"LAUNCH_DATE":"2023-02-12","MEAN_MOTION":"15.02531639","PERIAPSIS":"558.111","CLASSIFICATION_TYPE":"U","PERIOD":"95.838","RA_OF_ASC_NODE":"195.2962","ECCENTRICITY":"0.00014180","INCLINATION":"43.0023","ARG_OF_PERICENTER":"273.5415","OBJECT_TYPE":"PAYLOAD","NORAD_CAT_ID":"55571","CENTER_NAME":"EARTH","FILE":"3908829","COUNTRY_CODE":"US","BSTAR":"0.00008708200000","MEAN_ANOMALY":"86.5265","OBJECT_NAME":"STARLINK-5739","EPOCH":"2023-05-15T20:44:55.602816","REV_AT_EPOCH":"1415","OBJECT_ID":"2023-020C","SEMIMAJOR_AXIS":"6937.230","MEAN_MOTION_DOT":"0.00000973","RCS_SIZE":"LARGE","EPHEMERIS_TYPE":"0","TIME_SYSTEM":"UTC","TLE_LINE2":"2 55571  43.0023 195.2962 0001418 273.5415  86.5265 15.02531639 14150","GP_ID":"231902069","SITE":"AFETR"},{"CLASSIFICATION_TYPE":"U","PERIOD":"95.838","MEAN_MOTION":"15.02534969","PERIAPSIS":"558.025","OBJECT_TYPE":"PAYLOAD","RA_OF_ASC_NODE":"195.2543","INCLINATION":"43.0013","ECCENTRICITY":"0.00015280","ARG_OF_PERICENTER":"272.2498","NORAD_CAT_ID":"55572","CENTER_NAME":"EARTH","COUNTRY_CODE":"US","BSTAR":"0.00016383000000","FILE":"3908829","REF_FRAME":"TEME","MEAN_MOTION_DDOT":"0.0000000000000","TLE_LINE1":"1 55572U 23020D   23135.85897842  .00002010  00000-0  16383-3 0  9993","APOAPSIS":"560.145","MEAN_ELEMENT_THEORY":"SGP4","ELEMENT_SET_NO":"999","LAUNCH_DATE":"2023-02-12","DECAY_DATE":null,"EPHEMERIS_TYPE":"0","GP_ID":"231902056","SITE":"AFETR","TIME_SYSTEM":"UTC","TLE_LINE2":"2 55572  43.0013 195.2543 0001528 272.2498  87.8169 15.02534969 14150","OBJECT_NAME":"STARLINK-5732","MEAN_ANOMALY":"87.8169","EPOCH":"2023-05-15T20:36:55.735488","REV_AT_EPOCH":"1415","SEMIMAJOR_AXIS":"6937.220","RCS_SIZE":"LARGE","MEAN_MOTION_DOT":"0.00002010","OBJECT_ID":"2023-020D"},{"EPOCH":"2023-05-15T20:42:37.966752","MEAN_ANOMALY":"76.2236","OBJECT_NAME":"STARLINK-5738","OBJECT_ID":"2023-020E","SEMIMAJOR_AXIS":"6938.753","MEAN_MOTION_DOT":"-0.00052902","RCS_SIZE":"LARGE","REV_AT_EPOCH":"1415","EPHEMERIS_TYPE":"0","TIME_SYSTEM":"UTC","TLE_LINE2":"2 55573  43.0022 195.2882 0001208 283.8471  76.2236 15.02036804 14153","GP_ID":"231901874","SITE":"AFETR","TLE_LINE1":"1 55573U 23020E   23135.86293943 -.00052902  00000-0 -39831-2 0  9996","MEAN_MOTION_DDOT":"0.0000000000000","REF_FRAME":"TEME","DECAY_DATE":null,"LAUNCH_DATE":"2023-02-12","ELEMENT_SET_NO":"999","APOAPSIS":"561.457","MEAN_ELEMENT_THEORY":"SGP4","RA_OF_ASC_NODE":"195.2882","INCLINATION":"43.0022","ECCENTRICITY":"0.00012080","ARG_OF_PERICENTER":"283.8471","OBJECT_TYPE":"PAYLOAD","MEAN_MOTION":"15.02036804","PERIAPSIS":"559.780","CLASSIFICATION_TYPE":"U","PERIOD":"95.870","FILE":"3908829","COUNTRY_CODE":"US","BSTAR":"-0.00398310000000","NORAD_CAT_ID":"55573","CENTER_NAME":"EARTH"},{"ELEMENT_SET_NO":"999","APOAPSIS":"560.720","MEAN_ELEMENT_THEORY":"SGP4","DECAY_DATE":null,"LAUNCH_DATE":"2023-02-12","REF_FRAME":"TEME","MEAN_MOTION_DDOT":"0.0000000000000","TLE_LINE1":"1 55574U 23020F   23135.85127094 -.00020855  00000-0 -15375-2 0  9998","NORAD_CAT_ID":"55574","CENTER_NAME":"EARTH","FILE":"3908829","COUNTRY_CODE":"US","BSTAR":"-0.00153750000000","MEAN_MOTION":"15.02433215","PERIAPSIS":"558.076","CLASSIFICATION_TYPE":"U","PERIOD":"95.845","ECCENTRICITY":"0.00019050","RA_OF_ASC_NODE":"195.1941","INCLINATION":"43.0014","ARG_OF_PERICENTER":"276.8313","OBJECT_TYPE":"PAYLOAD","REV_AT_EPOCH":"1415","OBJECT_ID":"2023-020F","SEMIMAJOR_AXIS":"6937.533","RCS_SIZE":"LARGE","MEAN_MOTION_DOT":"-0.00020855","MEAN_ANOMALY":"83.2313","OBJECT_NAME":"STARLINK-5747","EPOCH":"2023-05-15T20:25:49.809216","TIME_SYSTEM":"UTC","TLE_LINE2":"2 55574  43.0014 195.1941 0001905 276.8313  83.2313 15.02433215 14152","GP_ID":"231901867","SITE":"AFETR","EPHEMERIS_TYPE":"0"},{"SITE":"AFETR","GP_ID":"231901876","TIME_SYSTEM":"UTC","TLE_LINE2":"2 55575  43.0026 195.2373 0001656 278.7251  81.3404 15.02415745 14159","EPHEMERIS_TYPE":"0","SEMIMAJOR_AXIS":"6937.587","RCS_SIZE":"LARGE","MEAN_MOTION_DOT":"-0.00012923","OBJECT_ID":"2023-020G","REV_AT_EPOCH":"1415","EPOCH":"2023-05-15T20:33:53.136864","OBJECT_NAME":"STARLINK-5745","MEAN_ANOMALY":"81.3404","COUNTRY_CODE":"US","BSTAR":"-0.00094637000000","FILE":"3908829","NORAD_CAT_ID":"55575","CENTER_NAME":"EARTH","OBJECT_TYPE":"PAYLOAD","INCLINATION":"43.0026","RA_OF_ASC_NODE":"195.2373","ECCENTRICITY":"0.00016560","ARG_OF_PERICENTER":"278.7251","CLASSIFICATION_TYPE":"U","PERIOD":"95.846","MEAN_MOTION":"15.02415745","PERIAPSIS":"558.303","DECAY_DATE":null,"LAUNCH_DATE":"2023-02-12","APOAPSIS":"560.601","MEAN_ELEMENT_THEORY":"SGP4","ELEMENT_SET_NO":"999","MEAN_MOTION_DDOT":"0.0000000000000","TLE_LINE1":"1 55575U 23020G   23135.85686501 -.00012923  00000-0 -94637-3 0  9998","REF_FRAME":"TEME"},{"SITE":"AFETR","GP_ID":"231902057","TLE_LINE2":"2 55576  43.0002 168.6167 0001288 261.5349 193.8762 15.04698469 14466","TIME_SYSTEM":"UTC","EPHEMERIS_TYPE":"0","RCS_SIZE":"LARGE","MEAN_MOTION_DOT":"-0.00784183","SEMIMAJOR_AXIS":"6930.568","OBJECT_ID":"2023-020H","REV_AT_EPOCH":"1446","EPOCH":"2023-05-15T22:00:00.999936","OBJECT_NAME":"STARLINK-5751","MEAN_ANOMALY":"193.8762","BSTAR":"-0.05861500000000","COUNTRY_CODE":"US","FILE":"3908829","CENTER_NAME":"EARTH","NORAD_CAT_ID":"55576","OBJECT_TYPE":"PAYLOAD","ARG_OF_PERICENTER":"261.5349","INCLINATION":"43.0002","RA_OF_ASC_NODE":"168.6167","ECCENTRICITY":"0.00012880","PERIOD":"95.700","CLASSIFICATION_TYPE":"U","PERIAPSIS":"551.541","MEAN_MOTION":"15.04698469","LAUNCH_DATE":"2023-02-12","DECAY_DATE":null,"MEAN_ELEMENT_THEORY":"SGP4","APOAPSIS":"553.326","ELEMENT_SET_NO":"999","MEAN_MOTION_DDOT":"0.0000000000000","TLE_LINE1":"1 55576U 23020H   23135.91667824 -.00784183  00000-0 -58615-1 0  9991","REF_FRAME":"TEME"}];
